CCSDS_OMM_VERS = 2.0
CREATION_DATE  = 
ORIGINATOR     = 

OBJECT_NAME    = STARLINK-36730
OBJECT_ID      = 2026-034AA
CENTER_NAME    = EARTH
REF_FRAME      = TEME
TIME_SYSTEM    = UTC
MEAN_ELEMENT_THEORY = SGP/SGP4

EPOCH          = 2026-03-05T06:00:02.999808
MEAN_MOTION    = 15.80829309
ECCENTRICITY   = .00009636
INCLINATION    = 53.1592
RA_OF_ASC_NODE = 233.3918
ARG_OF_PERICENTER = 80.4114
MEAN_ANOMALY   = 62.0067

EPHEMERIS_TYPE = 0
CLASSIFICATION_TYPE = U
NORAD_CAT_ID   = 67874
ELEMENT_SET_NO = 999
REV_AT_EPOCH   = 314
BSTAR          = .47625305E-3
MEAN_MOTION_DOT = .94137E-3
MEAN_MOTION_DDOT = 0

CCSDS_OMM_VERS = 2.0
CREATION_DATE  = 
ORIGINATOR     = 

OBJECT_NAME    = STARLINK-36727
OBJECT_ID      = 2026-034AB
CENTER_NAME    = EARTH
REF_FRAME      = TEME
TIME_SYSTEM    = UTC
MEAN_ELEMENT_THEORY = SGP/SGP4

EPOCH          = 2026-03-05T06:00:02.999808
MEAN_MOTION    = 15.80852134
ECCENTRICITY   = .00005935
INCLINATION    = 53.1594
RA_OF_ASC_NODE = 233.3826
ARG_OF_PERICENTER = 81.4287
MEAN_ANOMALY   = 65.2537

EPHEMERIS_TYPE = 0
CLASSIFICATION_TYPE = U
NORAD_CAT_ID   = 67875
ELEMENT_SET_NO = 999
REV_AT_EPOCH   = 314
BSTAR          = .24379219E-3
MEAN_MOTION_DOT = .47637E-3
MEAN_MOTION_DDOT = 0

CCSDS_OMM_VERS = 2.0
CREATION_DATE  = 
ORIGINATOR     = 

OBJECT_NAME    = STARLINK-36743
OBJECT_ID      = 2026-034AC
CENTER_NAME    = EARTH
REF_FRAME      = TEME
TIME_SYSTEM    = UTC
MEAN_ELEMENT_THEORY = SGP/SGP4

EPOCH          = 2026-03-05T06:00:02.999808
MEAN_MOTION    = 15.80843115
ECCENTRICITY   = .00010181
INCLINATION    = 53.1597
RA_OF_ASC_NODE = 233.3733
ARG_OF_PERICENTER = 146.9593
MEAN_ANOMALY   = 4.0011

EPHEMERIS_TYPE = 0
CLASSIFICATION_TYPE = U
NORAD_CAT_ID   = 67876
ELEMENT_SET_NO = 999
REV_AT_EPOCH   = 314
BSTAR          = .35595389E-3
MEAN_MOTION_DOT = .70029E-3
MEAN_MOTION_DDOT = 0

CCSDS_OMM_VERS = 2.0
CREATION_DATE  = 
ORIGINATOR     = 

OBJECT_NAME    = STARLINK-36784
OBJECT_ID      = 2026-034AD
CENTER_NAME    = EARTH
REF_FRAME      = TEME
TIME_SYSTEM    = UTC
MEAN_ELEMENT_THEORY = SGP/SGP4

EPOCH          = 2026-03-05T06:00:02.999808
MEAN_MOTION    = 15.80840462
ECCENTRICITY   = .00003756
INCLINATION    = 53.1596
RA_OF_ASC_NODE = 233.3648
ARG_OF_PERICENTER = 63.0685
MEAN_ANOMALY   = 92.1625

EPHEMERIS_TYPE = 0
CLASSIFICATION_TYPE = U
NORAD_CAT_ID   = 67877
ELEMENT_SET_NO = 999
REV_AT_EPOCH   = 314
BSTAR          = .41891997E-3
MEAN_MOTION_DOT = .82652E-3
MEAN_MOTION_DDOT = 0

CCSDS_OMM_VERS = 2.0
CREATION_DATE  = 
ORIGINATOR     = 

OBJECT_NAME    = STARLINK-36689
OBJECT_ID      = 2026-034AE
CENTER_NAME    = EARTH
REF_FRAME      = TEME
TIME_SYSTEM    = UTC
MEAN_ELEMENT_THEORY = SGP/SGP4

EPOCH          = 2026-03-05T06:00:02.999808
MEAN_MOTION    = 15.80818846
ECCENTRICITY   = .00010599
INCLINATION    = 53.1595
RA_OF_ASC_NODE = 233.3562
ARG_OF_PERICENTER = 99.3207
MEAN_ANOMALY   = 60.1798

EPHEMERIS_TYPE = 0
CLASSIFICATION_TYPE = U
NORAD_CAT_ID   = 67878
ELEMENT_SET_NO = 999
REV_AT_EPOCH   = 314
BSTAR          = .64352491E-3
MEAN_MOTION_DOT = .127888E-2
MEAN_MOTION_DDOT = 0

CCSDS_OMM_VERS = 2.0
CREATION_DATE  = 
ORIGINATOR     = 

OBJECT_NAME    = STARLINK-36818
OBJECT_ID      = 2026-035A
CENTER_NAME    = EARTH
REF_FRAME      = TEME
TIME_SYSTEM    = UTC
MEAN_ELEMENT_THEORY = SGP/SGP4

EPOCH          = 2026-03-05T06:00:02.999808
MEAN_MOTION    = 15.97148866
ECCENTRICITY   = .0001251
INCLINATION    = 97.2769
RA_OF_ASC_NODE = 356.2410
ARG_OF_PERICENTER = 122.6099
MEAN_ANOMALY   = 184.7674

EPHEMERIS_TYPE = 0
CLASSIFICATION_TYPE = U
NORAD_CAT_ID   = 67879
ELEMENT_SET_NO = 999
REV_AT_EPOCH   = 304
BSTAR          = -.21568569E-2
MEAN_MOTION_DOT = -.930442E-2
MEAN_MOTION_DDOT = .27783327E-3

CCSDS_OMM_VERS = 2.0
CREATION_DATE  = 
ORIGINATOR     = 

OBJECT_NAME    = STARLINK-36821
OBJECT_ID      = 2026-035B
CENTER_NAME    = EARTH
REF_FRAME      = TEME
TIME_SYSTEM    = UTC
MEAN_ELEMENT_THEORY = SGP/SGP4

EPOCH          = 2026-03-05T06:00:02.999808
MEAN_MOTION    = 15.97250068
ECCENTRICITY   = .00011191
INCLINATION    = 97.2764
RA_OF_ASC_NODE = 356.2442
ARG_OF_PERICENTER = 126.7757
MEAN_ANOMALY   = 187.4393

EPHEMERIS_TYPE = 0
CLASSIFICATION_TYPE = U
NORAD_CAT_ID   = 67880
ELEMENT_SET_NO = 999
REV_AT_EPOCH   = 304
BSTAR          = -.20065373E-2
MEAN_MOTION_DOT = -.870772E-2
MEAN_MOTION_DDOT = .24589642E-3

CCSDS_OMM_VERS = 2.0
CREATION_DATE  = 
ORIGINATOR     = 

OBJECT_NAME    = STARLINK-36808
OBJECT_ID      = 2026-035C
CENTER_NAME    = EARTH
REF_FRAME      = TEME
TIME_SYSTEM    = UTC
MEAN_ELEMENT_THEORY = SGP/SGP4

EPOCH          = 2026-03-05T06:00:02.999808
MEAN_MOTION    = 15.97243513
ECCENTRICITY   = .00012152
INCLINATION    = 97.2766
RA_OF_ASC_NODE = 356.2421
ARG_OF_PERICENTER = 116.9364
MEAN_ANOMALY   = 193.0342

EPHEMERIS_TYPE = 0
CLASSIFICATION_TYPE = U
NORAD_CAT_ID   = 67881
ELEMENT_SET_NO = 999
REV_AT_EPOCH   = 304
BSTAR          = -.22186001E-2
MEAN_MOTION_DOT = -.961803E-2
MEAN_MOTION_DDOT = .29577868E-3

CCSDS_OMM_VERS = 2.0
CREATION_DATE  = 
ORIGINATOR     = 

OBJECT_NAME    = STARLINK-36817
OBJECT_ID      = 2026-035D
CENTER_NAME    = EARTH
REF_FRAME      = TEME
TIME_SYSTEM    = UTC
MEAN_ELEMENT_THEORY = SGP/SGP4

EPOCH          = 2026-03-05T06:00:02.999808
MEAN_MOTION    = 15.97476033
ECCENTRICITY   = .00010378
INCLINATION    = 97.2755
RA_OF_ASC_NODE = 356.2472
ARG_OF_PERICENTER = 117.3792
MEAN_ANOMALY   = 204.9943

EPHEMERIS_TYPE = 0
CLASSIFICATION_TYPE = U
NORAD_CAT_ID   = 67882
ELEMENT_SET_NO = 999
REV_AT_EPOCH   = 304
BSTAR          = -.2195367E-2
MEAN_MOTION_DOT = -.963881E-2
MEAN_MOTION_DDOT = .29771787E-3

CCSDS_OMM_VERS = 2.0
CREATION_DATE  = 
ORIGINATOR     = 

OBJECT_NAME    = STARLINK-36856
OBJECT_ID      = 2026-035E
CENTER_NAME    = EARTH
REF_FRAME      = TEME
TIME_SYSTEM    = UTC
MEAN_ELEMENT_THEORY = SGP/SGP4

EPOCH          = 2026-03-05T06:00:02.999808
MEAN_MOTION    = 15.97398672
ECCENTRICITY   = .00010197
INCLINATION    = 97.2761
RA_OF_ASC_NODE = 356.2457
ARG_OF_PERICENTER = 105.5076
MEAN_ANOMALY   = 213.0313

EPHEMERIS_TYPE = 0
CLASSIFICATION_TYPE = U
NORAD_CAT_ID   = 67883
ELEMENT_SET_NO = 999
REV_AT_EPOCH   = 304
BSTAR          = -.22064362E-2
MEAN_MOTION_DOT = -.964638E-2
MEAN_MOTION_DDOT = .29790375E-3

CCSDS_OMM_VERS = 2.0
CREATION_DATE  = 
ORIGINATOR     = 

OBJECT_NAME    = STARLINK-36842
OBJECT_ID      = 2026-035F
CENTER_NAME    = EARTH
REF_FRAME      = TEME
TIME_SYSTEM    = UTC
MEAN_ELEMENT_THEORY = SGP/SGP4

EPOCH          = 2026-03-05T06:00:02.999808
MEAN_MOTION    = 15.97556065
ECCENTRICITY   = .00011779
INCLINATION    = 97.2756
RA_OF_ASC_NODE = 356.2486
ARG_OF_PERICENTER = 128.6588
MEAN_ANOMALY   = 197.3074

EPHEMERIS_TYPE = 0
CLASSIFICATION_TYPE = U
NORAD_CAT_ID   = 67884
ELEMENT_SET_NO = 999
REV_AT_EPOCH   = 304
BSTAR          = -.21757485E-2
MEAN_MOTION_DOT = -.959515E-2
MEAN_MOTION_DDOT = .29547533E-3

CCSDS_OMM_VERS = 2.0
CREATION_DATE  = 
ORIGINATOR     = 

OBJECT_NAME    = STARLINK-36826
OBJECT_ID      = 2026-035G
CENTER_NAME    = EARTH
REF_FRAME      = TEME
TIME_SYSTEM    = UTC
MEAN_ELEMENT_THEORY = SGP/SGP4

EPOCH          = 2026-03-05T06:00:02.999808
MEAN_MOTION    = 15.97644600
ECCENTRICITY   = .00012453
INCLINATION    = 97.2755
RA_OF_ASC_NODE = 356.2500
ARG_OF_PERICENTER = 128.0279
MEAN_ANOMALY   = 200.8474

EPHEMERIS_TYPE = 0
CLASSIFICATION_TYPE = U
NORAD_CAT_ID   = 67885
ELEMENT_SET_NO = 999
REV_AT_EPOCH   = 304
BSTAR          = -.20409158E-2
MEAN_MOTION_DOT = -.904825E-2
MEAN_MOTION_DDOT = .26521798E-3

