STARLINK-36730          
1 67874U 26034AA  26064.25003472  .00094137  00000+0  47625-3 0  9998
2 67874  53.1592 233.3918 0000963  80.4114  62.0067 15.80829309  3148
STARLINK-36727          
1 67875U 26034AB  26064.25003472  .00047637  00000+0  24379-3 0  9993
2 67875  53.1594 233.3826 0000593  81.4287  65.2537 15.80852134  3149
STARLINK-36743          
1 67876U 26034AC  26064.25003472  .00070029  00000+0  35595-3 0  9997
2 67876  53.1597 233.3733 0001018 146.9593   4.0011 15.80843115  3147
STARLINK-36784          
1 67877U 26034AD  26064.25003472  .00082652  00000+0  41892-3 0  9990
2 67877  53.1596 233.3648 0000375  63.0685  92.1625 15.80840462  3149
STARLINK-36689          
1 67878U 26034AE  26064.25003472  .00127888  00000+0  64352-3 0  9998
2 67878  53.1595 233.3562 0001059  99.3207  60.1798 15.80818846  3143
STARLINK-36818          
1 67879U 26035A   26064.25003472 -.00930442  27783-3 -21569-2 0  9993
2 67879  97.2769 356.2410 0001251 122.6099 184.7674 15.97148866  3047
STARLINK-36821          
1 67880U 26035B   26064.25003472 -.00870772  24590-3 -20065-2 0  9997
2 67880  97.2764 356.2442 0001119 126.7757 187.4393 15.97250068  3044
STARLINK-36808          
1 67881U 26035C   26064.25003472 -.00961803  29578-3 -22186-2 0  9991
2 67881  97.2766 356.2421 0001215 116.9364 193.0342 15.97243513  3040
STARLINK-36817          
1 67882U 26035D   26064.25003472 -.00963881  29772-3 -21954-2 0  9998
2 67882  97.2755 356.2472 0001037 117.3792 204.9943 15.97476033  3041
STARLINK-36856          
1 67883U 26035E   26064.25003472 -.00964638  29790-3 -22064-2 0  9993
2 67883  97.2761 356.2457 0001019 105.5076 213.0313 15.97398672  3040
STARLINK-36842          
1 67884U 26035F   26064.25003472 -.00959515  29548-3 -21757-2 0  9991
2 67884  97.2756 356.2486 0001177 128.6588 197.3074 15.97556065  3046
STARLINK-36826          
1 67885U 26035G   26064.25003472 -.00904825  26522-3 -20409-2 0  9998
2 67885  97.2755 356.2500 0001245 128.0279 200.8474 15.97644600  3047
